{
  "type": "FeatureCollection",
  "features": [
    {
      "type": "Feature",
      "properties": {
        "norad_id": 34396,
        "name": "COSMOS 2251 DEB",
        "group": "cosmos-2251-debris",
        "lat": -51.80152036649362,
        "lon": 76.88896246431587,
        "alt_km": 655.5888904586554,
        "timestamp": "2025-12-25T22:42:17.407349+00:00",
        "meta_object_name": "COSMOS 2251 DEB",
        "meta_object_id": "1993-036QM",
        "meta_epoch": "2025-12-25T16:57:49.043232",
        "meta_mean_motion": 14.7475538,
        "meta_eccentricity": 0.0004415,
        "meta_inclination": 74.0292,
        "meta_ra_of_asc_node": 98.6993,
        "meta_arg_of_pericenter": 132.9465,
        "meta_mean_anomaly": 342.7819,
        "meta_ephemeris_type": 0,
        "meta_classification_type": "U",
        "meta_norad_cat_id": 34396,
        "meta_element_set_no": 999,
        "meta_rev_at_epoch": 88537,
        "meta_bstar": 0.0021837,
        "meta_mean_motion_dot": 0.00014611,
        "meta_mean_motion_ddot": 0,
        "tle_line1": "1 34396U 93036QM  25359.70681763  .00014611  00000+0  21837-2 0  9993",
        "tle_line2": "2 34396  74.0292  98.6993 0004415 132.9465 342.7819 14.74755380885378"
      },
      "geometry": {
        "type": "Point",
        "coordinates": [
          76.88896246431587,
          -51.80152036649362
        ]
      }
    },
    {
      "type": "Feature",
      "properties": {
        "norad_id": 34400,
        "name": "COSMOS 2251 DEB",
        "group": "cosmos-2251-debris",
        "lat": -34.71634854127323,
        "lon": -174.52710159041075,
        "alt_km": 392.62939607139833,
        "timestamp": "2025-12-25T22:42:17.407359+00:00",
        "meta_object_name": "COSMOS 2251 DEB",
        "meta_object_id": "1993-036QR",
        "meta_epoch": "2025-12-24T01:07:12.164448",
        "meta_mean_motion": 15.58635981,
        "meta_eccentricity": 0.00028837,
        "meta_inclination": 73.9625,
        "meta_ra_of_asc_node": 358.2177,
        "meta_arg_of_pericenter": 215.0661,
        "meta_mean_anomaly": 145.0367,
        "meta_ephemeris_type": 0,
        "meta_classification_type": "U",
        "meta_norad_cat_id": 34400,
        "meta_element_set_no": 999,
        "meta_rev_at_epoch": 90150,
        "meta_bstar": 0.0033378255,
        "meta_mean_motion_dot": 0.00264923,
        "meta_mean_motion_ddot": 0,
        "tle_line1": "1 34400U 93036QR  25358.04666857  .00264923  00000+0  33378-2 0  9998",
        "tle_line2": "2 34400  73.9625 358.2177 0002883 215.0661 145.0367 15.58635981901502"
      },
      "geometry": {
        "type": "Point",
        "coordinates": [
          -174.52710159041075,
          -34.71634854127323
        ]
      }
    },
    {
      "type": "Feature",
      "properties": {
        "norad_id": 34409,
        "name": "COSMOS 2251 DEB",
        "group": "cosmos-2251-debris",
        "lat": 46.827247754740604,
        "lon": 84.02400023389232,
        "alt_km": 737.0394893333432,
        "timestamp": "2025-12-25T22:42:17.407369+00:00",
        "meta_object_name": "COSMOS 2251 DEB",
        "meta_object_id": "1993-036RA",
        "meta_epoch": "2025-12-25T13:02:36.481056",
        "meta_mean_motion": 14.5805798,
        "meta_eccentricity": 0.0080423,
        "meta_inclination": 74.0637,
        "meta_ra_of_asc_node": 282.5201,
        "meta_arg_of_pericenter": 353.529,
        "meta_mean_anomaly": 184.2935,
        "meta_ephemeris_type": 0,
        "meta_classification_type": "U",
        "meta_norad_cat_id": 34409,
        "meta_element_set_no": 999,
        "meta_rev_at_epoch": 89379,
        "meta_bstar": 0.00026547,
        "meta_mean_motion_dot": 1.245e-05,
        "meta_mean_motion_ddot": 0,
        "tle_line1": "1 34409U 93036RA  25359.54347779  .00001245  00000+0  26547-3 0  9999",
        "tle_line2": "2 34409  74.0637 282.5201 0080423 353.5290 184.2935 14.58057980893798"
      },
      "geometry": {
        "type": "Point",
        "coordinates": [
          84.02400023389232,
          46.827247754740604
        ]
      }
    },
    {
      "type": "Feature",
      "properties": {
        "norad_id": 34410,
        "name": "COSMOS 2251 DEB",
        "group": "cosmos-2251-debris",
        "lat": -28.579610803789688,
        "lon": 62.724691802581084,
        "alt_km": 521.6670692048356,
        "timestamp": "2025-12-25T22:42:17.407379+00:00",
        "meta_object_name": "COSMOS 2251 DEB",
        "meta_object_id": "1993-036RB",
        "meta_epoch": "2025-12-25T15:36:15.144192",
        "meta_mean_motion": 15.20112263,
        "meta_eccentricity": 0.0021152,
        "meta_inclination": 73.7358,
        "meta_ra_of_asc_node": 234.2049,
        "meta_arg_of_pericenter": 73.037,
        "meta_mean_anomaly": 318.1895,
        "meta_ephemeris_type": 0,
        "meta_classification_type": "U",
        "meta_norad_cat_id": 34410,
        "meta_element_set_no": 999,
        "meta_rev_at_epoch": 89970,
        "meta_bstar": 0.0022273,
        "meta_mean_motion_dot": 0.00048718,
        "meta_mean_motion_ddot": 0,
        "tle_line1": "1 34410U 93036RB  25359.65017528  .00048718  00000+0  22273-2 0  9996",
        "tle_line2": "2 34410  73.7358 234.2049 0021152  73.0370 318.1895 15.20112263899703"
      },
      "geometry": {
        "type": "Point",
        "coordinates": [
          62.724691802581084,
          -28.579610803789688
        ]
      }
    },
    {
      "type": "Feature",
      "properties": {
        "norad_id": 34412,
        "name": "COSMOS 2251 DEB",
        "group": "cosmos-2251-debris",
        "lat": -6.318164128226512,
        "lon": 121.59932560706066,
        "alt_km": 858.0143443530669,
        "timestamp": "2025-12-25T22:42:17.407389+00:00",
        "meta_object_name": "COSMOS 2251 DEB",
        "meta_object_id": "1993-036RD",
        "meta_epoch": "2025-12-24T06:02:29.414112",
        "meta_mean_motion": 14.47276709,
        "meta_eccentricity": 0.01876387,
        "meta_inclination": 73.949,
        "meta_ra_of_asc_node": 302.9581,
        "meta_arg_of_pericenter": 35.3619,
        "meta_mean_anomaly": 325.9814,
        "meta_ephemeris_type": 0,
        "meta_classification_type": "U",
        "meta_norad_cat_id": 34412,
        "meta_element_set_no": 999,
        "meta_rev_at_epoch": 87817,
        "meta_bstar": 0.0018649119,
        "meta_mean_motion_dot": 8.49e-05,
        "meta_mean_motion_ddot": 0,
        "tle_line1": "1 34412U 93036RD  25358.25172933  .00008490  00000+0  18649-2 0  9990",
        "tle_line2": "2 34412  73.9490 302.9581 0187638  35.3619 325.9814 14.47276709878176"
      },
      "geometry": {
        "type": "Point",
        "coordinates": [
          121.59932560706066,
          -6.318164128226512
        ]
      }
    },
    {
      "type": "Feature",
      "properties": {
        "norad_id": 34413,
        "name": "COSMOS 2251 DEB",
        "group": "cosmos-2251-debris",
        "lat": 1.4441935020610397,
        "lon": 60.478699251662455,
        "alt_km": 843.89129687687,
        "timestamp": "2025-12-25T22:42:17.407399+00:00",
        "meta_object_name": "COSMOS 2251 DEB",
        "meta_object_id": "1993-036RE",
        "meta_epoch": "2025-12-24T22:25:10.363872",
        "meta_mean_motion": 14.291856,
        "meta_eccentricity": 0.0090951,
        "meta_inclination": 74.0301,
        "meta_ra_of_asc_node": 242.7297,
        "meta_arg_of_pericenter": 316.973,
        "meta_mean_anomaly": 57.9695,
        "meta_ephemeris_type": 0,
        "meta_classification_type": "U",
        "meta_norad_cat_id": 34413,
        "meta_element_set_no": 999,
        "meta_rev_at_epoch": 87305,
        "meta_bstar": 0.0013959,
        "meta_mean_motion_dot": 3.681e-05,
        "meta_mean_motion_ddot": 0,
        "tle_line1": "1 34413U 93036RE  25358.93414773  .00003681  00000+0  13959-2 0  9993",
        "tle_line2": "2 34413  74.0301 242.7297 0090951 316.9730  57.9695 14.29185600873058"
      },
      "geometry": {
        "type": "Point",
        "coordinates": [
          60.478699251662455,
          1.4441935020610397
        ]
      }
    },
    {
      "type": "Feature",
      "properties": {
        "norad_id": 34420,
        "name": "COSMOS 2251 DEB",
        "group": "cosmos-2251-debris",
        "lat": -25.687623513757664,
        "lon": 70.49942364098017,
        "alt_km": 725.8887393191771,
        "timestamp": "2025-12-25T22:42:17.407410+00:00",
        "meta_object_name": "COSMOS 2251 DEB",
        "meta_object_id": "1993-036RM",
        "meta_epoch": "2025-12-25T01:53:27.691872",
        "meta_mean_motion": 14.68332611,
        "meta_eccentricity": 0.01060549,
        "meta_inclination": 74.0333,
        "meta_ra_of_asc_node": 80.0919,
        "meta_arg_of_pericenter": 198.2983,
        "meta_mean_anomaly": 231.8315,
        "meta_ephemeris_type": 0,
        "meta_classification_type": "U",
        "meta_norad_cat_id": 34420,
        "meta_element_set_no": 999,
        "meta_rev_at_epoch": 89951,
        "meta_bstar": 0.00021975448,
        "meta_mean_motion_dot": 1.346e-05,
        "meta_mean_motion_ddot": 0,
        "tle_line1": "1 34420U 93036RM  25359.07879273  .00001346  00000+0  21975-3 0  9991",
        "tle_line2": "2 34420  74.0333  80.0919 0106054 198.2983 231.8315 14.68332611899518"
      },
      "geometry": {
        "type": "Point",
        "coordinates": [
          70.49942364098017,
          -25.687623513757664
        ]
      }
    }
  ]
}